line1,line2,validFromUtcTime
1 00000U 00000E   26001.00000000  .00000000  00000-0  27772-4 0    01,2 00000  88.9258 150.3354 0010195 270.0705  14.8042 13.55273193    08,2026-01-01T00:00:00Z
1 00000U 00000E   26002.00000000  .00000000  00000-0  27772-4 0    02,2 00000  88.9258 150.2262 0010195 267.1603 213.7862 13.55273231    02,2026-01-02T00:00:00Z
